HTV-X1                  
1 66174U 25241A   26083.97497124  .00001155  00000+0  48060-4 0  9993
2 66174  51.6394 359.4321 0007320 230.8154 129.2178 15.32407355 23286
SZ-21 MODULE            
1 66515U 25246C   26083.77551291  .00034209  00000+0  28130-3 0  9992
2 66515  41.4739 110.4127 0000913 210.8046 149.2742 15.69693358 20447
SHENZHOU-22             
1 66645U 25272A   26083.87771812  .00019459  00000+0  22458-3 0  9996
2 66645  41.4665 115.6921 0004565  13.6781 346.4181 15.61442402279101
SOYUZ-MS 28             
1 66664U 25275A   26083.80895787  .00009690  00000+0  18680-3 0  9999
2 66664  51.6344 357.6177 0006258 228.0573 131.9883 15.48525391557718
DUPLEX                  
1 66906U 98067XS  26083.92888826  .00024404  00000+0  33524-3 0  9990
2 66906  51.6302 353.1716 0003160 178.0545 182.0460 15.57162607 17506
ISS OBJECT XT           
1 66907U 98067XT  26083.90475689  .00179802  00000+0  11777-2 0  9996
2 66907  51.6251 347.7296 0005389 177.4777 182.6251 15.74685538 17570
ISS OBJECT XU           
1 66908U 98067XU  26083.90153419  .00187437  00000+0  12158-2 0  9998
2 66908  51.6244 347.7039 0005616 177.7304 182.3722 15.74884594 17573
SILVERSAT               
1 66909U 98067XV  26083.99408541  .00260451  00000+0  13609-2 0  9997
2 66909  51.6220 346.0620 0006338 184.6058 175.4886 15.79536153 17609
ISS OBJECT XW           
1 66910U 98067XW  26083.97205397  .00159396  00000+0  11029-2 0  9990
2 66910  51.6240 347.4212 0005866 177.4194 182.6836 15.73475349 17586
ISS OBJECT XX           
1 66911U 98067XX  26083.95038701  .00366809  00000+0  14598-2 0  9995
2 66911  51.6196 344.9890 0007914 186.7603 173.3295 15.85075899 17603
ISS OBJECT XY           
1 66912U 98067XY  26083.77743036  .00096362  00000+0  89214-3 0  9992
2 66912  51.6273 350.6497 0003990 176.2596 183.8431 15.66719711 17517
KNACKSAT-2              
1 67683U 98067XZ  26083.91923458  .00035223  00000+0  55674-3 0  9994
2 67683  51.6318 356.1066 0009905 240.7531 119.2469 15.53079473  7157
