CCSDS_OMM_VERS = 2.0
CREATION_DATE  = 
ORIGINATOR     = 

OBJECT_NAME    = HTV-X1
OBJECT_ID      = 2025-241A
CENTER_NAME    = EARTH
REF_FRAME      = TEME
TIME_SYSTEM    = UTC
MEAN_ELEMENT_THEORY = SGP/SGP4

EPOCH          = 2026-03-24T23:23:57.515136
MEAN_MOTION    = 15.32407355
ECCENTRICITY   = .00073201
INCLINATION    = 51.6394
RA_OF_ASC_NODE = 359.4321
ARG_OF_PERICENTER = 230.8154
MEAN_ANOMALY   = 129.2178

EPHEMERIS_TYPE = 0
CLASSIFICATION_TYPE = U
NORAD_CAT_ID   = 66174
ELEMENT_SET_NO = 999
REV_AT_EPOCH   = 2328
BSTAR          = .4806045E-4
MEAN_MOTION_DOT = .1155E-4
MEAN_MOTION_DDOT = 0

CCSDS_OMM_VERS = 2.0
CREATION_DATE  = 
ORIGINATOR     = 

OBJECT_NAME    = SZ-21 MODULE
OBJECT_ID      = 2025-246C
CENTER_NAME    = EARTH
REF_FRAME      = TEME
TIME_SYSTEM    = UTC
MEAN_ELEMENT_THEORY = SGP/SGP4

EPOCH          = 2026-03-24T18:36:44.315424
MEAN_MOTION    = 15.69693358
ECCENTRICITY   = .00009131
INCLINATION    = 41.4739
RA_OF_ASC_NODE = 110.4127
ARG_OF_PERICENTER = 210.8046
MEAN_ANOMALY   = 149.2742

EPHEMERIS_TYPE = 0
CLASSIFICATION_TYPE = U
NORAD_CAT_ID   = 66515
ELEMENT_SET_NO = 999
REV_AT_EPOCH   = 2044
BSTAR          = .28129901E-3
MEAN_MOTION_DOT = .34209E-3
MEAN_MOTION_DDOT = 0

CCSDS_OMM_VERS = 2.0
CREATION_DATE  = 
ORIGINATOR     = 

OBJECT_NAME    = SHENZHOU-22
OBJECT_ID      = 2025-272A
CENTER_NAME    = EARTH
REF_FRAME      = TEME
TIME_SYSTEM    = UTC
MEAN_ELEMENT_THEORY = SGP/SGP4

EPOCH          = 2026-03-24T21:03:54.845568
MEAN_MOTION    = 15.61442402
ECCENTRICITY   = .00045652
INCLINATION    = 41.4665
RA_OF_ASC_NODE = 115.6921
ARG_OF_PERICENTER = 13.6781
MEAN_ANOMALY   = 346.4181

EPHEMERIS_TYPE = 0
CLASSIFICATION_TYPE = U
NORAD_CAT_ID   = 66645
ELEMENT_SET_NO = 999
REV_AT_EPOCH   = 27910
BSTAR          = .22458379E-3
MEAN_MOTION_DOT = .19459E-3
MEAN_MOTION_DDOT = 0

CCSDS_OMM_VERS = 2.0
CREATION_DATE  = 
ORIGINATOR     = 

OBJECT_NAME    = SOYUZ-MS 28
OBJECT_ID      = 2025-275A
CENTER_NAME    = EARTH
REF_FRAME      = TEME
TIME_SYSTEM    = UTC
MEAN_ELEMENT_THEORY = SGP/SGP4

EPOCH          = 2026-03-24T19:24:53.959968
MEAN_MOTION    = 15.48525391
ECCENTRICITY   = .00062584
INCLINATION    = 51.6344
RA_OF_ASC_NODE = 357.6177
ARG_OF_PERICENTER = 228.0573
MEAN_ANOMALY   = 131.9883

EPHEMERIS_TYPE = 0
CLASSIFICATION_TYPE = U
NORAD_CAT_ID   = 66664
ELEMENT_SET_NO = 999
REV_AT_EPOCH   = 55771
BSTAR          = .18679893E-3
MEAN_MOTION_DOT = .969E-4
MEAN_MOTION_DDOT = 0

CCSDS_OMM_VERS = 2.0
CREATION_DATE  = 
ORIGINATOR     = 

OBJECT_NAME    = DUPLEX
OBJECT_ID      = 1998-067XS
CENTER_NAME    = EARTH
REF_FRAME      = TEME
TIME_SYSTEM    = UTC
MEAN_ELEMENT_THEORY = SGP/SGP4

EPOCH          = 2026-03-24T22:17:35.945664
MEAN_MOTION    = 15.57162607
ECCENTRICITY   = .00031607
INCLINATION    = 51.6302
RA_OF_ASC_NODE = 353.1716
ARG_OF_PERICENTER = 178.0545
MEAN_ANOMALY   = 182.0460

EPHEMERIS_TYPE = 0
CLASSIFICATION_TYPE = U
NORAD_CAT_ID   = 66906
ELEMENT_SET_NO = 999
REV_AT_EPOCH   = 1750
BSTAR          = .33523952E-3
MEAN_MOTION_DOT = .24404E-3
MEAN_MOTION_DDOT = 0

CCSDS_OMM_VERS = 2.0
CREATION_DATE  = 
ORIGINATOR     = 

OBJECT_NAME    = ISS OBJECT XT
OBJECT_ID      = 1998-067XT
CENTER_NAME    = EARTH
REF_FRAME      = TEME
TIME_SYSTEM    = UTC
MEAN_ELEMENT_THEORY = SGP/SGP4

EPOCH          = 2026-03-24T21:42:50.995296
MEAN_MOTION    = 15.74685538
ECCENTRICITY   = .00053898
INCLINATION    = 51.6251
RA_OF_ASC_NODE = 347.7296
ARG_OF_PERICENTER = 177.4777
MEAN_ANOMALY   = 182.6251

EPHEMERIS_TYPE = 0
CLASSIFICATION_TYPE = U
NORAD_CAT_ID   = 66907
ELEMENT_SET_NO = 999
REV_AT_EPOCH   = 1757
BSTAR          = .11776604E-2
MEAN_MOTION_DOT = .179802E-2
MEAN_MOTION_DDOT = 0

CCSDS_OMM_VERS = 2.0
CREATION_DATE  = 
ORIGINATOR     = 

OBJECT_NAME    = ISS OBJECT XU
OBJECT_ID      = 1998-067XU
CENTER_NAME    = EARTH
REF_FRAME      = TEME
TIME_SYSTEM    = UTC
MEAN_ELEMENT_THEORY = SGP/SGP4

EPOCH          = 2026-03-24T21:38:12.554016
MEAN_MOTION    = 15.74884594
ECCENTRICITY   = .00056167
INCLINATION    = 51.6244
RA_OF_ASC_NODE = 347.7039
ARG_OF_PERICENTER = 177.7304
MEAN_ANOMALY   = 182.3722

EPHEMERIS_TYPE = 0
CLASSIFICATION_TYPE = U
NORAD_CAT_ID   = 66908
ELEMENT_SET_NO = 999
REV_AT_EPOCH   = 1757
BSTAR          = .12157598E-2
MEAN_MOTION_DOT = .187437E-2
MEAN_MOTION_DDOT = 0

CCSDS_OMM_VERS = 2.0
CREATION_DATE  = 
ORIGINATOR     = 

OBJECT_NAME    = SILVERSAT
OBJECT_ID      = 1998-067XV
CENTER_NAME    = EARTH
REF_FRAME      = TEME
TIME_SYSTEM    = UTC
MEAN_ELEMENT_THEORY = SGP/SGP4

EPOCH          = 2026-03-24T23:51:28.979424
MEAN_MOTION    = 15.79536153
ECCENTRICITY   = .00063389
INCLINATION    = 51.6220
RA_OF_ASC_NODE = 346.0620
ARG_OF_PERICENTER = 184.6058
MEAN_ANOMALY   = 175.4886

EPHEMERIS_TYPE = 0
CLASSIFICATION_TYPE = U
NORAD_CAT_ID   = 66909
ELEMENT_SET_NO = 999
REV_AT_EPOCH   = 1760
BSTAR          = .13608547E-2
MEAN_MOTION_DOT = .260451E-2
MEAN_MOTION_DDOT = 0

CCSDS_OMM_VERS = 2.0
CREATION_DATE  = 
ORIGINATOR     = 

OBJECT_NAME    = ISS OBJECT XW
OBJECT_ID      = 1998-067XW
CENTER_NAME    = EARTH
REF_FRAME      = TEME
TIME_SYSTEM    = UTC
MEAN_ELEMENT_THEORY = SGP/SGP4

EPOCH          = 2026-03-24T23:19:45.463008
MEAN_MOTION    = 15.73475349
ECCENTRICITY   = .0005866
INCLINATION    = 51.6240
RA_OF_ASC_NODE = 347.4212
ARG_OF_PERICENTER = 177.4194
MEAN_ANOMALY   = 182.6836

EPHEMERIS_TYPE = 0
CLASSIFICATION_TYPE = U
NORAD_CAT_ID   = 66910
ELEMENT_SET_NO = 999
REV_AT_EPOCH   = 1758
BSTAR          = .11028849E-2
MEAN_MOTION_DOT = .159396E-2
MEAN_MOTION_DDOT = 0

CCSDS_OMM_VERS = 2.0
CREATION_DATE  = 
ORIGINATOR     = 

OBJECT_NAME    = ISS OBJECT XX
OBJECT_ID      = 1998-067XX
CENTER_NAME    = EARTH
REF_FRAME      = TEME
TIME_SYSTEM    = UTC
MEAN_ELEMENT_THEORY = SGP/SGP4

EPOCH          = 2026-03-24T22:48:33.437664
MEAN_MOTION    = 15.85075899
ECCENTRICITY   = .00079141
INCLINATION    = 51.6196
RA_OF_ASC_NODE = 344.9890
ARG_OF_PERICENTER = 186.7603
MEAN_ANOMALY   = 173.3295

EPHEMERIS_TYPE = 0
CLASSIFICATION_TYPE = U
NORAD_CAT_ID   = 66911
ELEMENT_SET_NO = 999
REV_AT_EPOCH   = 1760
BSTAR          = .14598161E-2
MEAN_MOTION_DOT = .366809E-2
MEAN_MOTION_DDOT = 0

CCSDS_OMM_VERS = 2.0
CREATION_DATE  = 
ORIGINATOR     = 

OBJECT_NAME    = ISS OBJECT XY
OBJECT_ID      = 1998-067XY
CENTER_NAME    = EARTH
REF_FRAME      = TEME
TIME_SYSTEM    = UTC
MEAN_ELEMENT_THEORY = SGP/SGP4

EPOCH          = 2026-03-24T18:39:29.983104
MEAN_MOTION    = 15.66719711
ECCENTRICITY   = .00039903
INCLINATION    = 51.6273
RA_OF_ASC_NODE = 350.6497
ARG_OF_PERICENTER = 176.2596
MEAN_ANOMALY   = 183.8431

EPHEMERIS_TYPE = 0
CLASSIFICATION_TYPE = U
NORAD_CAT_ID   = 66912
ELEMENT_SET_NO = 999
REV_AT_EPOCH   = 1751
BSTAR          = .89213712E-3
MEAN_MOTION_DOT = .96362E-3
MEAN_MOTION_DDOT = 0

CCSDS_OMM_VERS = 2.0
CREATION_DATE  = 
ORIGINATOR     = 

OBJECT_NAME    = KNACKSAT-2
OBJECT_ID      = 1998-067XZ
CENTER_NAME    = EARTH
REF_FRAME      = TEME
TIME_SYSTEM    = UTC
MEAN_ELEMENT_THEORY = SGP/SGP4

EPOCH          = 2026-03-24T22:03:41.867712
MEAN_MOTION    = 15.53079473
ECCENTRICITY   = .00099058
INCLINATION    = 51.6318
RA_OF_ASC_NODE = 356.1066
ARG_OF_PERICENTER = 240.7531
MEAN_ANOMALY   = 119.2469

EPHEMERIS_TYPE = 0
CLASSIFICATION_TYPE = U
NORAD_CAT_ID   = 67683
ELEMENT_SET_NO = 999
REV_AT_EPOCH   = 715
BSTAR          = .55673959E-3
MEAN_MOTION_DOT = .35223E-3
MEAN_MOTION_DDOT = 0

